[
  {
    "OBJECT_NAME": "STARLINK-30550",
    "OBJECT_ID": "2023-156T",
    "EPOCH": "2023-10-22T14:00:01.000224",
    "MEAN_MOTION": 15.81003514,
    "ECCENTRICITY": 6.95e-5,
    "INCLINATION": 53.052,
    "RA_OF_ASC_NODE": 156.0894,
    "ARG_OF_PERICENTER": 102.5397,
    "MEAN_ANOMALY": 69.1491,
    "EPHEMERIS_TYPE": 0,
    "CLASSIFICATION_TYPE": "U",
    "NORAD_CAT_ID": 58045,
    "ELEMENT_SET_NO": 999,
    "REV_AT_EPOCH": 327,
    "BSTAR": -0.004317,
    "MEAN_MOTION_DOT": -0.00784141,
    "MEAN_MOTION_DDOT": 0
  },
  {
    "OBJECT_NAME": "STARLINK-30548",
    "OBJECT_ID": "2023-156U",
    "EPOCH": "2023-10-22T14:00:01.000224",
    "MEAN_MOTION": 15.80962918,
    "ECCENTRICITY": 9.33e-5,
    "INCLINATION": 53.0521,
    "RA_OF_ASC_NODE": 156.0857,
    "ARG_OF_PERICENTER": 79.5889,
    "MEAN_ANOMALY": 94.0124,
    "EPHEMERIS_TYPE": 0,
    "CLASSIFICATION_TYPE": "U",
    "NORAD_CAT_ID": 58046,
    "ELEMENT_SET_NO": 999,
    "REV_AT_EPOCH": 322,
    "BSTAR": -0.0043686,
    "MEAN_MOTION_DOT": -0.00791407,
    "MEAN_MOTION_DDOT": 0
  },
  {
    "OBJECT_NAME": "STARLINK-30529",
    "OBJECT_ID": "2023-156V",
    "EPOCH": "2023-10-22T14:00:01.000224",
    "MEAN_MOTION": 15.80893452,
    "ECCENTRICITY": 6.99e-5,
    "INCLINATION": 53.0517,
    "RA_OF_ASC_NODE": 156.0781,
    "ARG_OF_PERICENTER": 91.8841,
    "MEAN_ANOMALY": 85.1427,
    "EPHEMERIS_TYPE": 0,
    "CLASSIFICATION_TYPE": "U",
    "NORAD_CAT_ID": 58047,
    "ELEMENT_SET_NO": 999,
    "REV_AT_EPOCH": 301,
    "BSTAR": -0.0044685,
    "MEAN_MOTION_DOT": -0.00805487,
    "MEAN_MOTION_DDOT": 0
  },
  {
    "OBJECT_NAME": "STARLINK-30554",
    "OBJECT_ID": "2023-156W",
    "EPOCH": "2023-10-22T14:00:01.000224",
    "MEAN_MOTION": 15.80928578,
    "ECCENTRICITY": 6.54e-5,
    "INCLINATION": 53.0517,
    "RA_OF_ASC_NODE": 156.0815,
    "ARG_OF_PERICENTER": 89.5719,
    "MEAN_ANOMALY": 85.7873,
    "EPHEMERIS_TYPE": 0,
    "CLASSIFICATION_TYPE": "U",
    "NORAD_CAT_ID": 58048,
    "ELEMENT_SET_NO": 999,
    "REV_AT_EPOCH": 316,
    "BSTAR": -0.0044331,
    "MEAN_MOTION_DOT": -0.00800839,
    "MEAN_MOTION_DDOT": 0
  },
  {
    "OBJECT_NAME": "PSYCHE",
    "OBJECT_ID": "2023-157A",
    "EPOCH": "2023-10-13T14:28:09.729696",
    "MEAN_MOTION": 15.29658471,
    "ECCENTRICITY": 0.04672,
    "INCLINATION": 30,
    "RA_OF_ASC_NODE": 47.5426,
    "ARG_OF_PERICENTER": 123.51,
    "MEAN_ANOMALY": 359.98,
    "EPHEMERIS_TYPE": 0,
    "CLASSIFICATION_TYPE": "U",
    "NORAD_CAT_ID": 58049,
    "ELEMENT_SET_NO": 999,
    "REV_AT_EPOCH": 0,
    "BSTAR": 0,
    "MEAN_MOTION_DOT": 1.209e-5,
    "MEAN_MOTION_DDOT": -3.7902e-6
  },
  {
    "OBJECT_NAME": "STARLINK-30568",
    "OBJECT_ID": "2023-158A",
    "EPOCH": "2023-10-22T14:00:01.000224",
    "MEAN_MOTION": 15.90354252,
    "ECCENTRICITY": 0.0002069,
    "INCLINATION": 42.9991,
    "RA_OF_ASC_NODE": 91.0137,
    "ARG_OF_PERICENTER": 262.2263,
    "MEAN_ANOMALY": 121.4425,
    "EPHEMERIS_TYPE": 0,
    "CLASSIFICATION_TYPE": "U",
    "NORAD_CAT_ID": 58051,
    "ELEMENT_SET_NO": 999,
    "REV_AT_EPOCH": 242,
    "BSTAR": -0.002491,
    "MEAN_MOTION_DOT": -0.00728568,
    "MEAN_MOTION_DDOT": 0
  },
  {
    "OBJECT_NAME": "STARLINK-30575",
    "OBJECT_ID": "2023-158B",
    "EPOCH": "2023-10-22T14:00:01.000224",
    "MEAN_MOTION": 15.90396082,
    "ECCENTRICITY": 0.0002535,
    "INCLINATION": 42.9994,
    "RA_OF_ASC_NODE": 91.0105,
    "ARG_OF_PERICENTER": 256.3092,
    "MEAN_ANOMALY": 128.826,
    "EPHEMERIS_TYPE": 0,
    "CLASSIFICATION_TYPE": "U",
    "NORAD_CAT_ID": 58052,
    "ELEMENT_SET_NO": 999,
    "REV_AT_EPOCH": 258,
    "BSTAR": -0.0024786,
    "MEAN_MOTION_DOT": -0.00726823,
    "MEAN_MOTION_DDOT": 0
  },
  {
    "OBJECT_NAME": "STARLINK-30577",
    "OBJECT_ID": "2023-158C",
    "EPOCH": "2023-10-22T14:00:01.000224",
    "MEAN_MOTION": 15.9061749,
    "ECCENTRICITY": 0.0002028,
    "INCLINATION": 42.9993,
    "RA_OF_ASC_NODE": 90.9934,
    "ARG_OF_PERICENTER": 256.9248,
    "MEAN_ANOMALY": 134.907,
    "EPHEMERIS_TYPE": 0,
    "CLASSIFICATION_TYPE": "U",
    "NORAD_CAT_ID": 58053,
    "ELEMENT_SET_NO": 999,
    "REV_AT_EPOCH": 258,
    "BSTAR": -0.0025638,
    "MEAN_MOTION_DOT": -0.00757643,
    "MEAN_MOTION_DDOT": 0
  },
  {
    "OBJECT_NAME": "STARLINK-30566",
    "OBJECT_ID": "2023-158D",
    "EPOCH": "2023-10-22T14:00:01.000224",
    "MEAN_MOTION": 15.90684213,
    "ECCENTRICITY": 0.0001911,
    "INCLINATION": 42.9993,
    "RA_OF_ASC_NODE": 90.9883,
    "ARG_OF_PERICENTER": 263.8035,
    "MEAN_ANOMALY": 129.9594,
    "EPHEMERIS_TYPE": 0,
    "CLASSIFICATION_TYPE": "U",
    "NORAD_CAT_ID": 58054,
    "ELEMENT_SET_NO": 999,
    "REV_AT_EPOCH": 258,
    "BSTAR": -0.0025921,
    "MEAN_MOTION_DOT": -0.00767742,
    "MEAN_MOTION_DDOT": 0
  },
  {
    "OBJECT_NAME": "STARLINK-30544",
    "OBJECT_ID": "2023-158E",
    "EPOCH": "2023-10-22T14:00:01.000224",
    "MEAN_MOTION": 15.90887909,
    "ECCENTRICITY": 0.0002876,
    "INCLINATION": 42.9992,
    "RA_OF_ASC_NODE": 90.9717,
    "ARG_OF_PERICENTER": 252.9889,
    "MEAN_ANOMALY": 147.3064,
    "EPHEMERIS_TYPE": 0,
    "CLASSIFICATION_TYPE": "U",
    "NORAD_CAT_ID": 58055,
    "ELEMENT_SET_NO": 999,
    "REV_AT_EPOCH": 253,
    "BSTAR": -0.002627,
    "MEAN_MOTION_DOT": -0.0085533,
    "MEAN_MOTION_DDOT": 0.00022486
  },
  {
    "OBJECT_NAME": "STARLINK-30553",
    "OBJECT_ID": "2023-158F",
    "EPOCH": "2023-10-22T14:00:01.000224",
    "MEAN_MOTION": 15.90901561,
    "ECCENTRICITY": 0.0002127,
    "INCLINATION": 42.9991,
    "RA_OF_ASC_NODE": 90.9726,
    "ARG_OF_PERICENTER": 258.9652,
    "MEAN_ANOMALY": 141.1342,
    "EPHEMERIS_TYPE": 0,
    "CLASSIFICATION_TYPE": "U",
    "NORAD_CAT_ID": 58056,
    "ELEMENT_SET_NO": 999,
    "REV_AT_EPOCH": 258,
    "BSTAR": -0.00266,
    "MEAN_MOTION_DOT": -0.00794488,
    "MEAN_MOTION_DDOT": 0
  },
  {
    "OBJECT_NAME": "STARLINK-30541",
    "OBJECT_ID": "2023-158G",
    "EPOCH": "2023-10-22T14:00:01.000224",
    "MEAN_MOTION": 15.90765356,
    "ECCENTRICITY": 0.000237,
    "INCLINATION": 42.9992,
    "RA_OF_ASC_NODE": 90.9826,
    "ARG_OF_PERICENTER": 265.8249,
    "MEAN_ANOMALY": 130.339,
    "EPHEMERIS_TYPE": 0,
    "CLASSIFICATION_TYPE": "U",
    "NORAD_CAT_ID": 58057,
    "ELEMENT_SET_NO": 999,
    "REV_AT_EPOCH": 258,
    "BSTAR": -0.0025939,
    "MEAN_MOTION_DOT": -0.00771382,
    "MEAN_MOTION_DDOT": 0
  },
  {
    "OBJECT_NAME": "STARLINK-30573",
    "OBJECT_ID": "2023-158H",
    "EPOCH": "2023-10-22T14:00:01.000224",
    "MEAN_MOTION": 15.90818092,
    "ECCENTRICITY": 0.0003279,
    "INCLINATION": 42.9994,
    "RA_OF_ASC_NODE": 90.9783,
    "ARG_OF_PERICENTER": 250.8222,
    "MEAN_ANOMALY": 146.9851,
    "EPHEMERIS_TYPE": 0,
    "CLASSIFICATION_TYPE": "U",
    "NORAD_CAT_ID": 58058,
    "ELEMENT_SET_NO": 999,
    "REV_AT_EPOCH": 258,
    "BSTAR": -0.0026191,
    "MEAN_MOTION_DOT": -0.00849842,
    "MEAN_MOTION_DDOT": 0.00022209
  }
]
