STARLINK-30550          
1 58045U 23156T   23295.58334491 -.00784141  00000+0 -43170-2 0  9990
2 58045  53.0520 156.0894 0000695 102.5397  69.1491 15.81003514  3279
STARLINK-30548          
1 58046U 23156U   23295.58334491 -.00791407  00000+0 -43686-2 0  9996
2 58046  53.0521 156.0857 0000933  79.5889  94.0124 15.80962918  3220
STARLINK-30529          
1 58047U 23156V   23295.58334491 -.00805487  00000+0 -44685-2 0  9991
2 58047  53.0517 156.0781 0000699  91.8841  85.1427 15.80893452  3016
STARLINK-30554          
1 58048U 23156W   23295.58334491 -.00800839  00000+0 -44331-2 0  9996
2 58048  53.0517 156.0815 0000654  89.5719  85.7873 15.80928578  3169
PSYCHE                  
1 58049U 23157A   23286.60289039  .00001209 -37902-5  00000+0 0  9990
2 58049  30.0000  47.5426 0467200 123.5100 359.9800 15.29658471    02
STARLINK-30568          
1 58051U 23158A   23295.58334491 -.00728568  00000+0 -24910-2 0  9991
2 58051  42.9991  91.0137 0002069 262.2263 121.4425 15.90354252  2429
STARLINK-30575          
1 58052U 23158B   23295.58334491 -.00726823  00000+0 -24786-2 0  9995
2 58052  42.9994  91.0105 0002535 256.3092 128.8260 15.90396082  2582
STARLINK-30577          
1 58053U 23158C   23295.58334491 -.00757643  00000+0 -25638-2 0  9997
2 58053  42.9993  90.9934 0002028 256.9248 134.9070 15.90617490  2582
STARLINK-30566          
1 58054U 23158D   23295.58334491 -.00767742  00000+0 -25921-2 0  9994
2 58054  42.9993  90.9883 0001911 263.8035 129.9594 15.90684213  2589
STARLINK-30544          
1 58055U 23158E   23295.58334491 -.00855330  22486-3 -26270-2 0  9990
2 58055  42.9992  90.9717 0002876 252.9889 147.3064 15.90887909  2530
STARLINK-30553          
1 58056U 23158F   23295.58334491 -.00794488  00000+0 -26600-2 0  9998
2 58056  42.9991  90.9726 0002127 258.9652 141.1342 15.90901561  2580
STARLINK-30541          
1 58057U 23158G   23295.58334491 -.00771382  00000+0 -25939-2 0  9991
2 58057  42.9992  90.9826 0002370 265.8249 130.3390 15.90765356  2585
STARLINK-30573          
1 58058U 23158H   23295.58334491 -.00849842  22209-3 -26191-2 0  9999
2 58058  42.9994  90.9783 0003279 250.8222 146.9851 15.90818092  2585
